ONEWEB-0128             
1 47274U 20100S   24274.49609644 -.00000006  00000+0 -53383-4 0  9991
2 47274  87.8861 115.1028 0001839  91.8828 268.2511 13.12443083182802
ONEWEB-0129             
1 47275U 20100T   24274.32255400  .00000489  00000+0  13240-2 0  9990
2 47275  87.8855 115.0975 0002980  59.3554 300.7868 13.12443132182711
ONEWEB-0130             
1 47276U 20100U   24274.50258412 -.00000286  00000+0 -83092-3 0  9997
2 47276  87.8855 115.0679 0001824  84.6308 275.5028 13.12443522182706
ONEWEB-0131             
1 47277U 20100V   24274.49934093 -.00000178  00000+0 -53101-3 0  9990
2 47277  87.8856 115.0860 0001728  87.9488 272.1838 13.12442594182742
ONEWEB-0132             
1 47278U 20100W   24274.52854815 -.00000134  00000+0 -40761-3 0  9998
2 47278  87.8857 115.0821 0001467  89.3980 270.7317 13.12443902182643
ONEWEB-0133             
1 47279U 20100X   24274.84970760  .00000457  00000+0  12344-2 0  9993
2 47279  87.8854 115.0106 0001676  86.5634 273.5686 13.12444577182845
ONEWEB-0134             
1 47280U 20100Y   24274.51393246 -.00000430  00000+0 -12299-2 0  9999
2 47280  87.8846 115.0640 0001954  86.7182 273.4170 13.12445661182774
ONEWEB-0135             
1 47281U 20100Z   24274.48476356  .00000306  00000+0  81432-3 0  9996
2 47281  87.8858 115.0924 0002078  93.3085 266.8281 13.12441831182793
